[{"OBJECT_NAME":"ONEWEB-0006","OBJECT_ID":"2019-010E","EPOCH":"2026-03-09T22:27:56.417760","MEAN_MOTION":13.15547208,"ECCENTRICITY":0.00017085,"INCLINATION":87.8948,"RA_OF_ASC_NODE":278.9955,"ARG_OF_PERICENTER":96.2783,"MEAN_ANOMALY":263.8542,"EPHEMERIS_TYPE":0,"CLASSIFICATION_TYPE":"U","NORAD_CAT_ID":44061,"ELEMENT_SET_NO":999,"REV_AT_EPOCH":33837,"BSTAR":3.6231669e-5,"MEAN_MOTION_DOT":2.6e-7,"MEAN_MOTION_DDOT":0},{"OBJECT_NAME":"DELTA 1 DEB","OBJECT_ID":"1966-087E","EPOCH":"2026-03-09T12:12:12.925152","MEAN_MOTION":13.25110686,"ECCENTRICITY":0.00504697,"INCLINATION":101.7667,"RA_OF_ASC_NODE":77.3995,"ARG_OF_PERICENTER":95.8923,"MEAN_ANOMALY":58.3222,"EPHEMERIS_TYPE":0,"CLASSIFICATION_TYPE":"U","NORAD_CAT_ID":6213,"ELEMENT_SET_NO":999,"REV_AT_EPOCH":78314,"BSTAR":0.0077530095,"MEAN_MOTION_DOT":3.336e-5,"MEAN_MOTION_DDOT":0}]
